SAR-LUPE 2              
1 31797U 07030A   26120.55128633  .00014771  00000+0  31098-3 0  9994
2 31797  98.1003 219.3310 0011746 269.6460  90.3441 15.45333504 49570
SAPPHIRE                
1 39088U 13009C   26120.61610620  .00000108  00000+0  52606-4 0  9995
2 39088  98.4250 301.2039 0011851  35.9977 324.2005 14.35227368689754
PRAETORIAN SDA_602      
1 65565U 25203A   26120.53870917  .00000174  00000+0  14525-3 0  9991
2 65565  81.3045  54.9015 0005617 334.2596  25.8280 13.84335080 32101
PRAETORIAN SDA_603      
1 65566U 25203B   26120.55036024  .00000256  00000+0  22031-3 0  9999
2 65566  81.3051  54.7730 0009155 329.4723  30.5899 13.83899863 32113
PRAETORIAN SDA_604      
1 65567U 25203C   26120.54049602  .00000026  00000+0  12574-4 0  9992
2 65567  81.3065  55.1214 0005388 342.5094  17.5876 13.83039101 32090
PRAETORIAN SDA_605      
1 65568U 25203D   26120.51917313  .00000057  00000+0  41233-4 0  9991
2 65568  81.3031  54.8509 0007789 326.6887  33.3778 13.83427186 32100
PRAETORIAN SDA_606      
1 65569U 25203E   26120.21334554  .00000079  00000+0  61052-4 0  9994
2 65569  81.3067  55.3388 0005528 332.5279  27.5584 13.83534888 32053
PRAETORIAN SDA_607      
1 65570U 25203F   26120.32224916  .00000270  00000+0  23070-3 0  9998
2 65570  81.3051  54.9708 0008572 330.9494  29.1184 13.84320124 32086
PRAETORIAN SDA_608      
1 65571U 25203G   26120.57262749  .00000055  00000+0  38842-4 0  9997
2 65571  81.3018  54.8821 0005845 340.0840  20.0087 13.83808882 32108
PRAETORIAN SDA_609      
1 65572U 25203H   26120.52148390  .00000187  00000+0  15721-3 0  9994
2 65572  81.3064  54.9261 0006577 331.6105  28.4693 13.84304544 32104
PRAETORIAN SDA_610      
1 65573U 25203J   26120.55470457  .00000032  00000+0  18379-4 0  9992
2 65573  81.3020  54.8611 0006236 335.3916  24.6942 13.83914893 32106
PRAETORIAN SDA_611      
1 65574U 25203K   26120.31872198  .00000176  00000+0  14972-3 0  9998
2 65574  81.3026  55.2029 0005585 345.9420  14.1580 13.83302661 32065
PRAETORIAN SDA_612      
1 65575U 25203L   26120.29579681  .00000240  00000+0  20213-3 0  9994
2 65575  81.3041  54.9285 0008915 330.0563  30.0083 13.85031114 32087
PRAETORIAN SDA_613      
1 65576U 25203M   26120.52639744  .00000035  00000+0  21463-4 0  9999
2 65576  81.3013  54.9768 0005485 337.8185  22.2733 13.82946727 32095
PRAETORIAN SDA_614      
1 65577U 25203N   26120.56500905  .00000061  00000+0  43345-4 0  9992
2 65577  81.3027  54.7447 0006782 329.7425  30.3339 13.84771238 32122
PRAETORIAN SDA_615      
1 65578U 25203P   26120.31330729  .00000248  00000+0  21098-3 0  9998
2 65578  81.3036  54.9105 0008850 328.1161  31.9459 13.84431798 32083
PRAETORIAN SDA_616      
1 65579U 25203Q   26120.53439367  .00000282  00000+0  24578-3 0  9995
2 65579  81.3076  55.1187 0005371 344.8951  15.2044 13.83317730 32092
PRAETORIAN SDA_617      
1 65580U 25203R   26120.55171023  .00000060  00000+0  44436-4 0  9991
2 65580  81.3049  54.9382 0007113 330.2535  29.8216 13.83197546 32106
PRAETORIAN SDA_618      
1 65581U 25203S   26120.50650546  .00000242  00000+0  20411-3 0  9997
2 65581  81.3034  54.6858 0009388 328.9995  31.0607 13.84767580 32118
PRAETORIAN SDA_619      
1 65582U 25203T   26120.51345534  .00000843  00000+0  74931-3 0  9990
2 65582  81.3070  54.9005 0007854 330.4158  29.6553 13.83933499 32735
PRAETORIAN SDA_620      
1 65583U 25203U   26120.53196060  .00000276  00000+0  23905-3 0  9996
2 65583  81.3046  54.8923 0007211 326.1971  33.8725 13.83612242 32108
PRAETORIAN SDA_621      
1 65584U 25203V   26120.29509519  .00000040  00000+0  25681-4 0  9990
2 65584  81.3033  55.0478 0006951 324.4631  35.6062 13.83793109 32079
PRAETORIAN SDA_601      
1 65585U 25203W   26120.31938833  .00000383  00000+0  33719-3 0  9999
2 65585  81.3054  55.2732 0005439 345.3325  14.7672 13.83423915 32069
